COMMENT,ORIGINATOR,NORAD_CAT_ID,OBJECT_NAME,OBJECT_TYPE,CLASSIFICATION_TYPE,INTLDES,EPOCH,EPOCH_MICROSECONDS,MEAN_MOTION,ECCENTRICITY,INCLINATION,RA_OF_ASC_NODE,ARG_OF_PERICENTER,MEAN_ANOMALY,EPHEMERIS_TYPE,ELEMENT_SET_NO,REV_AT_EPOCH,BSTAR,MEAN_MOTION_DOT,MEAN_MOTION_DDOT,FILE,TLE_LINE0,TLE_LINE1,TLE_LINE2,OBJECT_ID,OBJECT_NUMBER,SEMIMAJOR_AXIS,PERIOD,APOGEE,PERIGEE,DECAYED,date
GENERATED VIA SPACETRACK.ORG API,18 SPCS,48895,SPACEBEE-108,PAYLOAD,U,21059S,2023/1/1 14:55,91584,15.20384617,0.000898,97.5768,136.2592,132.0468,228.1532,0,999,8399,0.00080245,0.00017453,0,3728759,0 SPACEBEE-108,1 48895U 21059S   23001.62218856  .00017453  00000-0  80245-3 0  9997,2 48895  97.5768 136.2592 0008980 132.0468 228.1532 15.20384617 83994,2021-059S,48895,6882.817,94.713,510.862,498.501,0,2023/1/1
GENERATED VIA SPACETRACK.ORG API,18 SPCS,48895,SPACEBEE-108,PAYLOAD,U,21059S,2023/1/1 14:55,91584,15.20384617,0.000898,97.5768,136.2592,132.0468,228.1532,0,999,8399,0.00080245,0.00017453,0,3728824,0 SPACEBEE-108,1 48895U 21059S   23001.62218856  .00017453  00000-0  80245-3 0  9997,2 48895  97.5768 136.2592 0008980 132.0468 228.1532 15.20384617 83994,2021-059S,48895,6882.817,94.713,510.862,498.501,0,2023/1/2
GENERATED VIA SPACETRACK.ORG API,18 SPCS,48895,SPACEBEE-108,PAYLOAD,U,21059S,2023/1/1 19:40,235904,15.20391364,0.0008988,97.5768,136.4576,131.3809,228.82,0,999,8402,0.00077684,0.00016895,0,3728952,0 SPACEBEE-108,1 48895U 21059S   23001.81963236  .00016895  00000-0  77684-3 0  9999,2 48895  97.5768 136.4576 0008988 131.3809 228.8200 15.20391364 84028,2021-059S,48895,6882.796,94.712,510.847,498.475,0,2023/1/3
GENERATED VIA SPACETRACK.ORG API,18 SPCS,48895,SPACEBEE-108,PAYLOAD,U,21059S,2023/1/2 14:37,32992,15.20416797,0.0008965,97.5767,137.2515,128.8756,231.328,0,999,8414,0.00070491,0.00015333,0,3729583,0 SPACEBEE-108,1 48895U 21059S   23002.60939853  .00015333  00000-0  70491-3 0  9990,2 48895  97.5767 137.2515 0008965 128.8756 231.3280 15.20416797 84144,2021-059S,48895,6882.719,94.711,510.755,498.414,0,2023/1/4
GENERATED VIA SPACETRACK.ORG API,18 SPCS,48895,SPACEBEE-108,PAYLOAD,U,21059S,2023/1/2 20:56,52448,15.20425282,0.0008933,97.5766,137.5161,128.0987,232.1055,0,999,8418,0.00068871,0.00014981,0,3730067,0 SPACEBEE-108,1 48895U 21059S   23002.87265107  .00014981  00000-0  68871-3 0  9990,2 48895  97.5766 137.5161 0008933 128.0987 232.1055 15.20425282 84188,2021-059S,48895,6882.694,94.71,510.707,498.411,0,2023/1/5
GENERATED VIA SPACETRACK.ORG API,18 SPCS,48895,SPACEBEE-108,PAYLOAD,U,21059S,2023/1/3 8:00,530208,15.20442288,0.000895,97.5767,137.9791,126.6406,233.5653,0,999,8425,0.00076877,0.00016744,0,3730926,0 SPACEBEE-108,1 48895U 21059S   23003.33333947  .00016744  00000-0  76877-3 0  9994,2 48895  97.5767 137.9791 0008950 126.6406 233.5653 15.20442288 84253,2021-059S,48895,6882.643,94.709,510.668,498.348,0,2023/1/6
GENERATED VIA SPACETRACK.ORG API,18 SPCS,48895,SPACEBEE-108,PAYLOAD,U,21059S,2023/1/4 7:41,412192,15.20476722,0.0008922,97.577,138.9715,123.4531,236.7558,0,999,8440,0.00088929,0.00019406,0,3731542,0 SPACEBEE-108,1 48895U 21059S   23004.32051403  .00019406  00000-0  88929-3 0  9997,2 48895  97.5770 138.9715 0008922 123.4531 236.7558 15.20476722 84403,2021-059S,48895,6882.539,94.707,510.544,498.263,0,2023/1/7
GENERATED VIA SPACETRACK.ORG API,18 SPCS,48895,SPACEBEE-108,PAYLOAD,U,21059S,2023/1/4 7:41,412192,15.20476722,0.0008922,97.577,138.9715,123.4531,236.7558,0,999,8440,0.00088929,0.00019406,0,3731823,0 SPACEBEE-108,1 48895U 21059S   23004.32051403  .00019406  00000-0  88929-3 0  9997,2 48895  97.5770 138.9715 0008922 123.4531 236.7558 15.20476722 84403,2021-059S,48895,6882.539,94.707,510.544,498.263,0,2023/1/8
GENERATED VIA SPACETRACK.ORG API,18 SPCS,48895,SPACEBEE-108,PAYLOAD,U,21059S,2023/1/4 20:19,463040,15.2049935,0.0008915,97.5771,139.5007,121.4663,238.7444,0,999,8448,0.00094966,0.00020745,0,3732134,0 SPACEBEE-108,1 48895U 21059S   23004.84699610  .00020745  00000-0  94966-3 0  9998,2 48895  97.5771 139.5007 0008915 121.4663 238.7444 15.20499350 84487,2021-059S,48895,6882.47,94.706,510.471,498.2,0,2023/1/9
GENERATED VIA SPACETRACK.ORG API,18 SPCS,48895,SPACEBEE-108,PAYLOAD,U,21059S,2023/1/5 7:23,951008,15.20516615,0.0009011,97.5774,139.964,119.99,240.2231,0,999,8455,0.00083814,0.00018305,0,3732939,0 SPACEBEE-108,1 48895U 21059S   23005.30766147  .00018305  00000-0  83814-3 0  9999,2 48895  97.5774 139.9640 0009011 119.9900 240.2231 15.20516615 84555,2021-059S,48895,6882.418,94.705,510.485,498.081,0,2023/1/10
GENERATED VIA SPACETRACK.ORG API,18 SPCS,48895,SPACEBEE-108,PAYLOAD,U,21059S,2023/1/6 8:39,688288,15.20567933,0.0009073,97.5779,141.0227,116.3498,243.8669,0,999,8471,0.00098289,0.0002152,0,3733796,0 SPACEBEE-108,1 48895U 21059S   23006.36058667  .00021520  00000-0  98289-3 0  9992,2 48895  97.5779 141.0227 0009073 116.3498 243.8669 15.20567933 84717,2021-059S,48895,6882.263,94.701,510.373,497.884,0,2023/1/11
GENERATED VIA SPACETRACK.ORG API,18 SPCS,48895,SPACEBEE-108,PAYLOAD,U,21059S,2023/1/6 8:39,688288,15.20567933,0.0009073,97.5779,141.0227,116.3498,243.8669,0,999,8471,0.00098289,0.0002152,0,3734255,0 SPACEBEE-108,1 48895U 21059S   23006.36058667  .00021520  00000-0  98289-3 0  9992,2 48895  97.5779 141.0227 0009073 116.3498 243.8669 15.20567933 84717,2021-059S,48895,6882.263,94.701,510.373,497.884,0,2023/1/12
GENERATED VIA SPACETRACK.ORG API,18 SPCS,48895,SPACEBEE-108,PAYLOAD,U,21059S,2023/1/7 6:45,638848,15.20605317,0.0009071,97.5779,141.949,113.4711,246.7479,0,999,8485,0.00093236,0.00020429,0,3735161,0 SPACEBEE-108,1 48895U 21059S   23007.28187082  .00020429  00000-0  93236-3 0  9992,2 48895  97.5779 141.9490 0009071 113.4711 246.7479 15.20605317 84857,2021-059S,48895,6882.151,94.699,510.258,497.773,0,2023/1/13
GENERATED VIA SPACETRACK.ORG API,18 SPCS,48895,SPACEBEE-108,PAYLOAD,U,21059S,2023/1/7 14:39,384160,15.20617313,0.0008984,97.5779,142.2796,112.5786,247.64,0,999,8490,0.00092172,0.00020201,0,3735248,0 SPACEBEE-108,1 48895U 21059S   23007.61089565  .00020201  00000-0  92172-3 0  9992,2 48895  97.5779 142.2796 0008984 112.5786 247.6400 15.20617313 84903,2021-059S,48895,6882.114,94.698,510.162,497.797,0,2023/1/14
GENERATED VIA SPACETRACK.ORG API,18 SPCS,48895,SPACEBEE-108,PAYLOAD,U,21059S,2023/1/7 14:39,384160,15.20617313,0.0008984,97.5779,142.2796,112.5786,247.64,0,999,8490,0.00092172,0.00020201,0,3735488,0 SPACEBEE-108,1 48895U 21059S   23007.61089565  .00020201  00000-0  92172-3 0  9992,2 48895  97.5779 142.2796 0008984 112.5786 247.6400 15.20617313 84903,2021-059S,48895,6882.114,94.698,510.162,497.797,0,2023/1/15
GENERATED VIA SPACETRACK.ORG API,18 SPCS,48895,SPACEBEE-108,PAYLOAD,U,21059S,2023/1/8 8:02,588704,15.20644623,0.0008987,97.578,143.0075,110.1956,250.0246,0,999,8501,0.00086764,0.00019024,0,3736235,0 SPACEBEE-108,1 48895U 21059S   23008.33474061  .00019024  00000-0  86764-3 0  9992,2 48895  97.5780 143.0075 0008987 110.1956 250.0246 15.20644623 85013,2021-059S,48895,6882.032,94.697,510.082,497.712,0,2023/1/16
GENERATED VIA SPACETRACK.ORG API,18 SPCS,48895,SPACEBEE-108,PAYLOAD,U,21059S,2023/1/9 2:59,911872,15.20678166,0.0008994,97.5783,143.8014,107.3539,252.868,0,999,8513,0.0010199,0.00022407,0,3736557,0 SPACEBEE-108,1 48895U 21059S   23009.12437398  .00022407  00000-0  10199-2 0  9999,2 48895  97.5783 143.8014 0008994 107.3539 252.8680 15.20678166 85134,2021-059S,48895,6881.931,94.695,509.985,497.606,0,2023/1/17
GENERATED VIA SPACETRACK.ORG API,18 SPCS,48895,SPACEBEE-108,PAYLOAD,U,21059S,2023/1/9 7:43,726336,15.20686538,0.0008983,97.578,143.9996,107.1308,253.0912,0,999,8516,0.00094806,0.00020824,0,3737263,0 SPACEBEE-108,1 48895U 21059S   23009.32177924  .00020824  00000-0  94806-3 0  9996,2 48895  97.5780 143.9996 0008983 107.1308 253.0912 15.20686538 85167,2021-059S,48895,6881.906,94.694,509.953,497.589,0,2023/1/18
GENERATED VIA SPACETRACK.ORG API,18 SPCS,48895,SPACEBEE-108,PAYLOAD,U,21059S,2023/1/10 8:59,658080,15.20730447,0.0009021,97.5781,145.0581,103.5056,256.7185,0,999,8532,0.00093007,0.00020453,0,3738716,0 SPACEBEE-108,1 48895U 21059S   23010.37459095  .00020453  00000-0  93007-3 0  9995,2 48895  97.5781 145.0581 0009021 103.5056 256.7185 15.20730447 85324,2021-059S,48895,6881.773,94.691,509.846,497.43,0,2023/1/19
GENERATED VIA SPACETRACK.ORG API,18 SPCS,48895,SPACEBEE-108,PAYLOAD,U,21059S,2023/1/10 8:59,658080,15.20730447,0.0009021,97.5781,145.0581,103.5056,256.7185,0,999,8532,0.00093007,0.00020453,0,3739038,0 SPACEBEE-108,1 48895U 21059S   23010.37459095  .00020453  00000-0  93007-3 0  9995,2 48895  97.5781 145.0581 0009021 103.5056 256.7185 15.20730447 85324,2021-059S,48895,6881.773,94.691,509.846,497.43,0,2023/1/20
GENERATED VIA SPACETRACK.ORG API,18 SPCS,48895,SPACEBEE-108,PAYLOAD,U,21059S,2023/1/10 15:18,954048,15.20741807,0.0009044,97.5781,145.3229,102.4636,257.7611,0,999,8536,0.0009455,0.00020802,0,3739267,0 SPACEBEE-108,1 48895U 21059S   23010.63778882  .00020802  00000-0  94550-3 0  9994,2 48895  97.5781 145.3229 0009044 102.4636 257.7611 15.20741807 85364,2021-059S,48895,6881.739,94.691,509.828,497.38,0,2023/1/21
GENERATED VIA SPACETRACK.ORG API,18 SPCS,48895,SPACEBEE-108,PAYLOAD,U,21059S,2023/1/11 8:40,830304,15.20778083,0.000911,97.5784,146.051,99.9298,260.2965,0,999,8547,0.0010718,0.00023624,0,3740054,0 SPACEBEE-108,1 48895U 21059S   23011.36157211  .00023624  00000-0  10718-2 0  9990,2 48895  97.5784 146.0510 0009110  99.9298 260.2965 15.20778083 85475,2021-059S,48895,6881.629,94.688,509.764,497.225,0,2023/1/22
GENERATED VIA SPACETRACK.ORG API,18 SPCS,48895,SPACEBEE-108,PAYLOAD,U,21059S,2023/1/11 8:40,830304,15.20778083,0.000911,97.5784,146.051,99.9298,260.2965,0,999,8547,0.0010718,0.00023624,0,3740172,0 SPACEBEE-108,1 48895U 21059S   23011.36157211  .00023624  00000-0  10718-2 0  9990,2 48895  97.5784 146.0510 0009110  99.9298 260.2965 15.20778083 85475,2021-059S,48895,6881.629,94.688,509.764,497.225,0,2023/1/23
